[{"OBJECT_NAME":"STARLINK-3312","OBJECT_ID":"2022-001AZ","EPOCH":"2026-03-09T11:22:03.363456","MEAN_MOTION":15.08837152,"ECCENTRICITY":0.00012848,"INCLINATION":53.2172,"RA_OF_ASC_NODE":140.0908,"ARG_OF_PERICENTER":96.2045,"MEAN_ANOMALY":263.9093,"EPHEMERIS_TYPE":0,"CLASSIFICATION_TYPE":"U","NORAD_CAT_ID":50850,"ELEMENT_SET_NO":999,"REV_AT_EPOCH":23133,"BSTAR":-2.9322036e-5,"MEAN_MOTION_DOT":-7.54e-6,"MEAN_MOTION_DDOT":0},{"OBJECT_NAME":"FENGYUN 1C DEB","OBJECT_ID":"1999-025BBA","EPOCH":"2026-03-08T04:01:46.595424","MEAN_MOTION":14.68382206,"ECCENTRICITY":0.01906782,"INCLINATION":99.0027,"RA_OF_ASC_NODE":196.6188,"ARG_OF_PERICENTER":258.0888,"MEAN_ANOMALY":99.8879,"EPHEMERIS_TYPE":0,"CLASSIFICATION_TYPE":"U","NORAD_CAT_ID":30960,"ELEMENT_SET_NO":999,"REV_AT_EPOCH":99951,"BSTAR":0.0022197351,"MEAN_MOTION_DOT":0.00016894,"MEAN_MOTION_DDOT":0}]
